start=new Date('2021-12-14T00:00:00.000Z').valueOf();
sats=[{"INCLINATION":"53.0560","PERIAPSIS":"545.586","APOAPSIS":"548.855","CLASSIFICATION_TYPE":"U","SITE":"AFETR","ELEMENT_SET_NO":"999","TIME_SYSTEM":"UTC","OBJECT_ID":"2021-041AH","GP_ID":"191661468","TLE_LINE1":"1 48584U 21041AH  21347.92494821  .00001915  00000-0  14748-3 0  9996","COUNTRY_CODE":"US","EPOCH":"2021-12-13T22:11:55.525344","MEAN_MOTION_DOT":"0.00001915","ECCENTRICITY":"0.00023600","PERIOD":"95.592","BSTAR":"0.00014748000000","MEAN_MOTION":"15.06397713","TLE_LINE2":"2 48584  53.0560 245.3134 0002360  66.3741 293.7496 15.06397713 31927","OBJECT_TYPE":"PAYLOAD","RCS_SIZE":"LARGE","REV_AT_EPOCH":"3192","OBJECT_NAME":"STARLINK-2238","MEAN_MOTION_DDOT":"0.0000000000000","MEAN_ANOMALY":"293.7496","MEAN_ELEMENT_THEORY":"SGP4","ARG_OF_PERICENTER":"66.3741","RA_OF_ASC_NODE":"245.3134","EPHEMERIS_TYPE":"0","CENTER_NAME":"EARTH","NORAD_CAT_ID":"48584","DECAY_DATE":null,"LAUNCH_DATE":"2021-05-15","REF_FRAME":"TEME","SEMIMAJOR_AXIS":"6925.356","FILE":"3239585"},{"SITE":"AFETR","CLASSIFICATION_TYPE":"U","APOAPSIS":"548.729","PERIAPSIS":"545.710","INCLINATION":"53.0554","PERIOD":"95.592","ECCENTRICITY":"0.00021800","MEAN_MOTION_DOT":"-0.00000780","EPOCH":"2021-12-13T22:27:50.323104","COUNTRY_CODE":"US","TLE_LINE1":"1 48585U 21041AJ  21347.93599911 -.00000780  00000-0 -33433-4 0  9998","GP_ID":"191661660","OBJECT_ID":"2021-041AJ","TIME_SYSTEM":"UTC","ELEMENT_SET_NO":"999","EPHEMERIS_TYPE":"0","ARG_OF_PERICENTER":"68.5295","RA_OF_ASC_NODE":"245.2680","MEAN_ELEMENT_THEORY":"SGP4","MEAN_ANOMALY":"291.5926","OBJECT_NAME":"STARLINK-2240","MEAN_MOTION_DDOT":"0.0000000000000","RCS_SIZE":"LARGE","REV_AT_EPOCH":"3192","OBJECT_TYPE":"PAYLOAD","TLE_LINE2":"2 48585  53.0554 245.2680 0002180  68.5295 291.5926 15.06398050 31923","MEAN_MOTION":"15.06398050","BSTAR":"-0.00003343300000","FILE":"3239585","SEMIMAJOR_AXIS":"6925.355","REF_FRAME":"TEME","LAUNCH_DATE":"2021-05-15","DECAY_DATE":null,"NORAD_CAT_ID":"48585","CENTER_NAME":"EARTH"},{"NORAD_CAT_ID":"48586","CENTER_NAME":"EARTH","DECAY_DATE":null,"SEMIMAJOR_AXIS":"6925.350","LAUNCH_DATE":"2021-05-15","REF_FRAME":"TEME","FILE":"3239585","BSTAR":"0.00009874600000","RCS_SIZE":"LARGE","REV_AT_EPOCH":"3192","MEAN_MOTION":"15.06399581","OBJECT_TYPE":"PAYLOAD","TLE_LINE2":"2 48586  53.0551 245.2987 0002488  66.4694 293.6556 15.06399581 31924","MEAN_ELEMENT_THEORY":"SGP4","MEAN_ANOMALY":"293.6556","MEAN_MOTION_DDOT":"0.0000000000000","OBJECT_NAME":"STARLINK-2241","RA_OF_ASC_NODE":"245.2987","ARG_OF_PERICENTER":"66.4694","EPHEMERIS_TYPE":"0","ELEMENT_SET_NO":"999","TLE_LINE1":"1 48586U 21041AK  21347.92862593  .00001189  00000-0  98746-4 0  9997","COUNTRY_CODE":"US","TIME_SYSTEM":"UTC","OBJECT_ID":"2021-041AK","GP_ID":"191662241","EPOCH":"2021-12-13T22:17:13.280352","MEAN_MOTION_DOT":"0.00001189","PERIOD":"95.592","ECCENTRICITY":"0.00024880","PERIAPSIS":"545.492","APOAPSIS":"548.938","CLASSIFICATION_TYPE":"U","INCLINATION":"53.0551","SITE":"AFETR"},{"MEAN_MOTION":"15.06390842","TLE_LINE2":"2 48587  53.0563 245.2663 0002275  68.6224 291.5008 15.06390842 31926","OBJECT_TYPE":"PAYLOAD","REV_AT_EPOCH":"3192","RCS_SIZE":"LARGE","BSTAR":"-0.00002594000000","ARG_OF_PERICENTER":"68.6224","RA_OF_ASC_NODE":"245.2663","EPHEMERIS_TYPE":"0","OBJECT_NAME":"STARLINK-2242","MEAN_MOTION_DDOT":"0.0000000000000","MEAN_ELEMENT_THEORY":"SGP4","MEAN_ANOMALY":"291.5008","DECAY_DATE":null,"CENTER_NAME":"EARTH","NORAD_CAT_ID":"48587","FILE":"3239585","LAUNCH_DATE":"2021-05-15","REF_FRAME":"TEME","SEMIMAJOR_AXIS":"6925.377","SITE":"AFETR","INCLINATION":"53.0563","PERIAPSIS":"545.666","APOAPSIS":"548.817","CLASSIFICATION_TYPE":"U","TIME_SYSTEM":"UTC","OBJECT_ID":"2021-041AL","GP_ID":"191660885","TLE_LINE1":"1 48587U 21041AL  21347.93505791 -.00000668  00000-0 -25940-4 0  9992","COUNTRY_CODE":"US","ELEMENT_SET_NO":"999","ECCENTRICITY":"0.00022750","PERIOD":"95.593","EPOCH":"2021-12-13T22:26:29.003424","MEAN_MOTION_DOT":"-0.00000668"},{"MEAN_ELEMENT_THEORY":"SGP4","MEAN_ANOMALY":"290.1099","OBJECT_NAME":"STARLINK-2244","MEAN_MOTION_DDOT":"0.0000000000000","EPHEMERIS_TYPE":"0","ARG_OF_PERICENTER":"70.0159","RA_OF_ASC_NODE":"235.3880","BSTAR":"-0.00003587400000","REV_AT_EPOCH":"3206","RCS_SIZE":"LARGE","OBJECT_TYPE":"PAYLOAD","TLE_LINE2":"2 48588  53.0534 235.3880 0002500  70.0159 290.1099 15.06392704 32061","MEAN_MOTION":"15.06392704","SEMIMAJOR_AXIS":"6925.371","REF_FRAME":"TEME","LAUNCH_DATE":"2021-05-15","FILE":"3239585","NORAD_CAT_ID":"48588","CENTER_NAME":"EARTH","DECAY_DATE":null,"CLASSIFICATION_TYPE":"U","APOAPSIS":"548.967","PERIAPSIS":"545.505","INCLINATION":"53.0534","SITE":"AFETR","MEAN_MOTION_DOT":"-0.00000816","EPOCH":"2021-12-13T21:52:01.189632","PERIOD":"95.593","ECCENTRICITY":"0.00025000","ELEMENT_SET_NO":"999","COUNTRY_CODE":"US","TLE_LINE1":"1 48588U 21041AM  21347.91112488 -.00000816  00000-0 -35874-4 0  9990","GP_ID":"191661079","OBJECT_ID":"2021-041AM","TIME_SYSTEM":"UTC"},{"NORAD_CAT_ID":"48589","CENTER_NAME":"EARTH","DECAY_DATE":null,"SEMIMAJOR_AXIS":"6925.287","LAUNCH_DATE":"2021-05-15","REF_FRAME":"TEME","FILE":"3239585","BSTAR":"-0.00037260000000","RCS_SIZE":"LARGE","REV_AT_EPOCH":"3206","MEAN_MOTION":"15.06419947","TLE_LINE2":"2 48589  53.0546 235.3971 0002949  66.0947 294.0351 15.06419947 32066","OBJECT_TYPE":"PAYLOAD","MEAN_ANOMALY":"294.0351","MEAN_ELEMENT_THEORY":"SGP4","MEAN_MOTION_DDOT":"0.0000000000000","OBJECT_NAME":"STARLINK-2245","ARG_OF_PERICENTER":"66.0947","RA_OF_ASC_NODE":"235.3971","EPHEMERIS_TYPE":"0","ELEMENT_SET_NO":"999","TLE_LINE1":"1 48589U 21041AN  21347.90742976 -.00005831  00000-0 -37260-3 0  9993","COUNTRY_CODE":"US","TIME_SYSTEM":"UTC","GP_ID":"191662047","OBJECT_ID":"2021-041AN","EPOCH":"2021-12-13T21:46:41.931264","MEAN_MOTION_DOT":"-0.00005831","PERIOD":"95.591","ECCENTRICITY":"0.00029490","PERIAPSIS":"545.110","APOAPSIS":"549.195","CLASSIFICATION_TYPE":"U","INCLINATION":"53.0546","SITE":"AFETR"},{"SITE":"AFETR","PERIAPSIS":"545.594","APOAPSIS":"548.831","CLASSIFICATION_TYPE":"U","INCLINATION":"53.0553","PERIOD":"95.592","ECCENTRICITY":"0.00023370","EPOCH":"2021-12-13T22:22:32.392704","MEAN_MOTION_DOT":"0.00001005","TLE_LINE1":"1 48590U 21041AP  21347.93231936  .00001005  00000-0  86350-4 0  9999","COUNTRY_CODE":"US","TIME_SYSTEM":"UTC","OBJECT_ID":"2021-041AP","GP_ID":"191661855","ELEMENT_SET_NO":"999","ARG_OF_PERICENTER":"66.1796","RA_OF_ASC_NODE":"245.2809","EPHEMERIS_TYPE":"0","MEAN_ELEMENT_THEORY":"SGP4","MEAN_ANOMALY":"293.9438","MEAN_MOTION_DDOT":"0.0000000000000","OBJECT_NAME":"STARLINK-2246","REV_AT_EPOCH":"3192","RCS_SIZE":"LARGE","MEAN_MOTION":"15.06400284","OBJECT_TYPE":"PAYLOAD","TLE_LINE2":"2 48590  53.0553 245.2809 0002337  66.1796 293.9438 15.06400284 31922","BSTAR":"0.00008635000000","FILE":"3239585","SEMIMAJOR_AXIS":"6925.348","LAUNCH_DATE":"2021-05-15","REF_FRAME":"TEME","DECAY_DATE":null,"NORAD_CAT_ID":"48590","CENTER_NAME":"EARTH"},{"ELEMENT_SET_NO":"999","TLE_LINE1":"1 48591U 21041AQ  21347.95809495  .00001015  00000-0  87045-4 0  9996","COUNTRY_CODE":"US","TIME_SYSTEM":"UTC","OBJECT_ID":"2021-041AQ","GP_ID":"191661276","EPOCH":"2021-12-13T22:59:39.403680","MEAN_MOTION_DOT":"0.00001015","PERIOD":"95.592","ECCENTRICITY":"0.00024400","PERIAPSIS":"545.516","APOAPSIS":"548.896","CLASSIFICATION_TYPE":"U","INCLINATION":"53.0551","SITE":"AFETR","NORAD_CAT_ID":"48591","CENTER_NAME":"EARTH","DECAY_DATE":null,"SEMIMAJOR_AXIS":"6925.341","LAUNCH_DATE":"2021-05-15","REF_FRAME":"TEME","FILE":"3239585","BSTAR":"0.00008704500000","REV_AT_EPOCH":"3297","RCS_SIZE":"LARGE","MEAN_MOTION":"15.06402543","TLE_LINE2":"2 48591  53.0551 235.0882 0002440  66.8289 293.2957 15.06402543 32973","OBJECT_TYPE":"PAYLOAD","MEAN_ELEMENT_THEORY":"SGP4","MEAN_ANOMALY":"293.2957","OBJECT_NAME":"STARLINK-2248","MEAN_MOTION_DDOT":"0.0000000000000","RA_OF_ASC_NODE":"235.0882","ARG_OF_PERICENTER":"66.8289","EPHEMERIS_TYPE":"0"},{"SITE":"AFETR","INCLINATION":"53.0560","PERIAPSIS":"545.495","APOAPSIS":"548.972","CLASSIFICATION_TYPE":"U","TIME_SYSTEM":"UTC","GP_ID":"191661469","OBJECT_ID":"2021-041AR","TLE_LINE1":"1 48592U 21041AR  21347.89914491 -.00000363  00000-0 -54125-5 0  9994","COUNTRY_CODE":"US","ELEMENT_SET_NO":"999","ECCENTRICITY":"0.00025100","PERIOD":"95.593","EPOCH":"2021-12-13T21:34:46.120224","MEAN_MOTION_DOT":"-0.00000363","MEAN_MOTION":"15.06393548","TLE_LINE2":"2 48592  53.0560 245.4399 0002510  67.8264 292.2991 15.06393548 31929","OBJECT_TYPE":"PAYLOAD","REV_AT_EPOCH":"3192","RCS_SIZE":"MEDIUM","BSTAR":"-0.00000541250000","RA_OF_ASC_NODE":"245.4399","ARG_OF_PERICENTER":"67.8264","EPHEMERIS_TYPE":"0","OBJECT_NAME":"STARLINK-2249","MEAN_MOTION_DDOT":"0.0000000000000","MEAN_ANOMALY":"292.2991","MEAN_ELEMENT_THEORY":"SGP4","DECAY_DATE":null,"CENTER_NAME":"EARTH","NORAD_CAT_ID":"48592","FILE":"3239585","LAUNCH_DATE":"2021-05-15","REF_FRAME":"TEME","SEMIMAJOR_AXIS":"6925.368"},{"SITE":"AFETR","CLASSIFICATION_TYPE":"U","PERIAPSIS":"545.634","APOAPSIS":"548.785","INCLINATION":"53.0553","PERIOD":"95.592","ECCENTRICITY":"0.00022750","MEAN_MOTION_DOT":"0.00001422","EPOCH":"2021-12-13T21:45:22.731840","COUNTRY_CODE":"US","TLE_LINE1":"1 48593U 21041AS  21347.90651310  .00001422  00000-0  11437-3 0  9997","OBJECT_ID":"2021-041AS","GP_ID":"191661661","TIME_SYSTEM":"UTC","ELEMENT_SET_NO":"999","EPHEMERIS_TYPE":"0","RA_OF_ASC_NODE":"245.3976","ARG_OF_PERICENTER":"69.1747","MEAN_ELEMENT_THEORY":"SGP4","MEAN_ANOMALY":"290.9485","MEAN_MOTION_DDOT":"0.0000000000000","OBJECT_NAME":"STARLINK-2250","RCS_SIZE":"LARGE","REV_AT_EPOCH":"3192","OBJECT_TYPE":"PAYLOAD","TLE_LINE2":"2 48593  53.0553 245.3976 0002275  69.1747 290.9485 15.06401469 31926","MEAN_MOTION":"15.06401469","BSTAR":"0.00011437000000","FILE":"3239585","SEMIMAJOR_AXIS":"6925.344","REF_FRAME":"TEME","LAUNCH_DATE":"2021-05-15","DECAY_DATE":null,"NORAD_CAT_ID":"48593","CENTER_NAME":"EARTH"}];
